YAOGAN-35 04A           
1 53522U 22100A   24229.32629223  .00002508  00000+0  10000-3 0  9998
2 53522  35.0086 304.2306 0028261 324.3860  34.3937 15.24473174111071
YAOGAN-35 04B           
1 53524U 22100C   24229.64551724  .00042343  00000+0  16962-2 0  9998
2 53524  34.9956 305.7197 0005809 272.9684  87.0366 15.24018222111043
YAOGAN-35 04C           
1 53526U 22100E   24229.64966671  .00031984  00000+0  12931-2 0  9992
2 53526  34.9957 305.7522 0002286 260.7034  99.3422 15.23778565111049
STARLINK-4511           
1 53527U 22101A   24228.98517334 -.00002417  00000+0 -13380-3 0  9999
2 53527  53.2157 116.1149 0001147  93.9605 266.1518 15.08847453110001
STARLINK-4503           
1 53528U 22101B   24228.98883618  .00016048  00000+0  10226-2 0  9999
2 53528  53.2161 116.0985 0001264  68.1490 291.9636 15.08894271110007
STARLINK-4478           
1 53529U 22101C   24228.98149256  .00001330  00000+0  10160-3 0  9999
2 53529  53.2160 116.1386 0001365 106.9050 253.2092 15.08861030110002
STARLINK-4482           
1 53530U 22101D   24228.99623923  .00010550  00000+0  67989-3 0  9995
2 53530  53.2163 116.2888 0001127 111.5197 248.5915 15.08843031110007
STARLINK-4487           
1 53531U 22101E   24228.97781471  .00001075  00000+0  85614-4 0  9995
2 53531  53.2157 116.1454 0001435  91.9822 268.1334 15.08855884110009
STARLINK-4483           
1 53532U 22101F   24229.01093193 -.00002419  00000+0 -13391-3 0  9996
2 53532  53.2155 116.0005 0001252  73.0846 287.0284 15.08849436110014
STARLINK-4493           
1 53533U 22101G   24229.00726185  .00003474  00000+0  23615-3 0  9990
2 53533  53.2163 116.0039 0001372  92.7409 267.3741 15.08852561110019
STARLINK-4488           
1 53534U 22101H   24229.50034081  .00015853  00000+0  10117-2 0  9999
2 53534  53.2151 113.5295 0001315 103.7036 256.4102 15.08846835110094
STARLINK-4138           
1 53535U 22101J   24229.00357437  .00022585  00000+0  14327-2 0  9995
2 53535  53.2153 116.0334 0001306  70.2093 289.9039 15.08836368110012
STARLINK-4053           
1 53536U 22101K   24228.97872395  .00017751  00000+0  11304-2 0  9997
2 53536  53.2148 106.0663 0001200  80.1668 279.9460 15.08845594110144
DONGPO 08               
1 54686U 22167E   24229.86889586  .00021048  00000+0  11001-2 0  9993
2 54686  97.6169  12.0261 0010701 340.3474  19.7344 15.15855570 93300
2022-167F               
1 54687U 22167F   24229.83682639  .00035208  00000+0  16296-2 0  9995
2 54687  97.6011  11.7416 0007467 302.3478  57.7033 15.20014487 93321
2022-167G               
1 54688U 22167G   24229.70041590  .00193862  00000+0  30558-2 0  9995
2 54688  97.5886  20.0012 0010077 287.8823  72.1330 15.52809338 93859
DONGPO 10               
1 54689U 22167H   24229.84684659  .00020317  00000+0  10587-2 0  9994
2 54689  97.6245  12.6399 0010034 302.3214  57.7046 15.15976838 93307
JILIN-1 GAOFEN 03D50    
1 54690U 22167J   24229.83390445  .00022177  00000+0  11684-2 0  9997
2 54690  97.6112  11.6178 0008312 302.9163  57.1269 15.15582657 93304
JIAOTONG 5 (HEAD-2H)    
1 54691U 22167K   24229.87112181  .00031189  00000+0  14325-2 0  9999
2 54691  97.6065  16.8034 0009781 245.5668 114.4547 15.20289703 93637
JILIN-1 GAOFEN 03D47    
1 54692U 22167L   24229.88825398  .00021401  00000+0  11155-2 0  9996
2 54692  97.6226  12.7528 0011036 309.2670  50.7582 15.15945704 93328
2022-167M               
1 54693U 22167M   24229.86052684  .00256260  00000+0  30096-2 0  9993
2 54693  97.5986  22.0135 0009625 273.5969  86.4186 15.60568279 93935
JILIN-1 GAOFEN 03D49    
1 54694U 22167N   24229.79942527  .00023900  00000+0  12203-2 0  9993
2 54694  97.6119  11.8227 0009270 319.2462  40.8076 15.16666544 93303
JILIN-1 GAOFEN 03D48    
1 54695U 22167P   24229.79326939  .00022607  00000+0  11833-2 0  9998
2 54695  97.6181  12.2157 0010916 304.1453  55.8744 15.15787222 93306
SHIYAN 20A (SY-20A)     
1 54699U 22169A   24229.87207899  .00000685  00000+0  32293-3 0  9992
2 54699  59.9960 291.7711 0018899  62.0537 298.2408 14.29024189 87670
SHIYAN 20B (SY-20B)     
1 54700U 22169B   24229.87651041  .00000704  00000+0  33012-3 0  9999
2 54700  59.9962 291.8227 0024715  61.5662 298.7859 14.29000352 87676
JILIN-1 PINGTAI 01A01   
1 54751U 22167Q   24229.82946966  .00047923  00000+0  16182-2 0  9993
2 54751  97.6077  15.5409 0009480 301.1940  58.8371 15.30478526 93211
