OBJECT_NAME,OBJECT_ID,EPOCH,MEAN_MOTION,ECCENTRICITY,INCLINATION,RA_OF_ASC_NODE,ARG_OF_PERICENTER,MEAN_ANOMALY,EPHEMERIS_TYPE,CLASSIFICATION_TYPE,NORAD_CAT_ID,ELEMENT_SET_NO,REV_AT_EPOCH,BSTAR,MEAN_MOTION_DOT,MEAN_MOTION_DDOT
DONGPO 08,2022-167E,2024-08-16T20:51:12.602304,15.1585557,0.0010701,97.6169,12.0261,340.3474,19.7344,0,U,54686,999,9330,0.0011001,0.00021048,0
OBJECT F,2022-167F,2024-08-16T20:05:01.800096,15.20014487,0.0007467,97.6011,11.7416,302.3478,57.7033,0,U,54687,999,9332,0.0016296,0.00035208,0
OBJECT G,2022-167G,2024-08-16T16:48:35.933760,15.52809338,0.0010077,97.5886,20.0012,287.8823,72.133,0,U,54688,999,9385,0.0030558,0.00193862,0
DONGPO 10,2022-167H,2024-08-16T20:19:27.545376,15.15976838,0.0010034,97.6245,12.6399,302.3214,57.7046,0,U,54689,999,9330,0.0010587,0.00020317,0
JILIN-1 GAOFEN 03D50,2022-167J,2024-08-16T20:00:49.344480,15.15582657,0.0008312,97.6112,11.6178,302.9163,57.1269,0,U,54690,999,9330,0.0011684,0.00022177,0
JIAOTONG 5 (HEAD-2H),2022-167K,2024-08-16T20:54:24.924384,15.20289703,0.0009781,97.6065,16.8034,245.5668,114.4547,0,U,54691,999,9363,0.0014325,0.00031189,0
JILIN-1 GAOFEN 03D47,2022-167L,2024-08-16T21:19:05.143872,15.15945704,0.0011036,97.6226,12.7528,309.267,50.7582,0,U,54692,999,9332,0.0011155,0.00021401,0
OBJECT M,2022-167M,2024-08-16T20:39:09.518976,15.60568279,0.0009625,97.5986,22.0135,273.5969,86.4186,0,U,54693,999,9393,0.0030096,0.0025626,0
JILIN-1 GAOFEN 03D49,2022-167N,2024-08-16T19:11:10.343328,15.16666544,0.000927,97.6119,11.8227,319.2462,40.8076,0,U,54694,999,9330,0.0012203,0.000239,0
JILIN-1 GAOFEN 03D48,2022-167P,2024-08-16T19:02:18.475296,15.15787222,0.0010916,97.6181,12.2157,304.1453,55.8744,0,U,54695,999,9330,0.0011833,0.00022607,0
SHIYAN 20A (SY-20A),2022-169A,2024-08-16T20:55:47.624736,14.29024189,0.0018899,59.996,291.7711,62.0537,298.2408,0,U,54699,999,8767,0.00032293,6.85e-06,0
SHIYAN 20B (SY-20B),2022-169B,2024-08-16T21:02:10.499424,14.29000352,0.0024715,59.9962,291.8227,61.5662,298.7859,0,U,54700,999,8767,0.00033012,7.04e-06,0
JILIN-1 PINGTAI 01A01,2022-167Q,2024-08-16T19:54:26.178624,15.30478526,0.000948,97.6077,15.5409,301.194,58.8371,0,U,54751,999,9321,0.0016182,0.00047923,0
YAOGAN-35 04A,2022-100A,2024-08-16T07:49:51.648672,15.24473174,0.0028261,35.0086,304.2306,324.386,34.3937,0,U,53522,999,11107,0.0001,2.508e-05,0
YAOGAN-35 04B,2022-100C,2024-08-16T15:29:32.689536,15.24018222,0.0005809,34.9956,305.7197,272.9684,87.0366,0,U,53524,999,11104,0.0016962,0.00042343,0
YAOGAN-35 04C,2022-100E,2024-08-16T15:35:31.203744,15.23778565,0.0002286,34.9957,305.7522,260.7034,99.3422,0,U,53526,999,11104,0.0012931,0.00031984,0
STARLINK-4511,2022-101A,2024-08-15T23:38:38.976576,15.08847453,0.0001147,53.2157,116.1149,93.9605,266.1518,0,U,53527,999,11000,-0.0001338,-2.417e-05,0
STARLINK-4503,2022-101B,2024-08-15T23:43:55.445952,15.08894271,0.0001264,53.2161,116.0985,68.149,291.9636,0,U,53528,999,11000,0.0010226,0.00016048,0
STARLINK-4478,2022-101C,2024-08-15T23:33:20.957184,15.0886103,0.0001365,53.216,116.1386,106.905,253.2092,0,U,53529,999,11000,0.0001016,1.33e-05,0
STARLINK-4482,2022-101D,2024-08-15T23:54:35.069472,15.08843031,0.0001127,53.2163,116.2888,111.5197,248.5915,0,U,53530,999,11000,0.00067989,0.0001055,0
STARLINK-4487,2022-101E,2024-08-15T23:28:03.190944,15.08855884,0.0001435,53.2157,116.1454,91.9822,268.1334,0,U,53531,999,11000,8.5614e-05,1.075e-05,0
STARLINK-4483,2022-101F,2024-08-16T00:15:44.518752,15.08849436,0.0001252,53.2155,116.0005,73.0846,287.0284,0,U,53532,999,11001,-0.00013391,-2.419e-05,0
STARLINK-4493,2022-101G,2024-08-16T00:10:27.423840,15.08852561,0.0001372,53.2163,116.0039,92.7409,267.3741,0,U,53533,999,11001,0.00023615,3.474e-05,0
STARLINK-4488,2022-101H,2024-08-16T12:00:29.445984,15.08846835,0.0001315,53.2151,113.5295,103.7036,256.4102,0,U,53534,999,11009,0.0010117,0.00015853,0
STARLINK-4138,2022-101J,2024-08-16T00:05:08.825568,15.08836368,0.0001306,53.2153,116.0334,70.2093,289.9039,0,U,53535,999,11001,0.0014327,0.00022585,0
STARLINK-4053,2022-101K,2024-08-15T23:29:21.749280,15.08845594,0.00012,53.2148,106.0663,80.1668,279.946,0,U,53536,999,11014,0.0011304,0.00017751,0
